NORAD_CAT_ID,OBJECT_NAME,OBJECT_TYPE,EPOCH,MEAN_MOTION,ECCENTRICITY,INCLINATION,RA_OF_ASC_NODE,ARG_OF_PERICENTER,MEAN_ANOMALY,BSTAR,MEAN_MOTION_DOT,MEAN_MOTION_DDOT,TLE_LINE0,TLE_LINE1,TLE_LINE2,SEMIMAJOR_AXIS,PERIOD,APOGEE,PERIGEE,DECAYED
52546.0,STARLINK-3948,PAYLOAD,2022-12-25 16:13:13,15.08835195,0.0002598,53.2159,341.5287,34.6937,325.4224,-0.00013643,-2.459e-05,0.0,0 STARLINK-3948,1 52546U 22051P   22359.67585175 -.00002459  00000-0 -13643-3 0  9999,2 52546  53.2159 341.5287 0002598  34.6937 325.4224 15.08835195 34818,6917.895,95.438,541.557,537.9630000000002,0.0
52546.0,STARLINK-3948,PAYLOAD,2022-12-26 09:42:28,15.08843345,0.0002631999999999,53.2161,338.2577,30.5619,329.5526,-3.1965e-05,-7.97e-06,0.0,0 STARLINK-3948,1 52546U 22051P   22360.40449454 -.00000797  00000-0 -31965-4 0  9992,2 52546  53.2161 338.2577 0002632  30.5619 329.5526 15.08843345 34925,6917.87,95.437,541.556,537.914,0.0
52546.0,STARLINK-3948,PAYLOAD,2022-12-27 04:47:04,15.08856674,0.0002588,53.2157,334.6886,34.4248,325.6911,0.00033132,4.991e-05,0.0,0 STARLINK-3948,1 52546U 22051P   22361.19936295  .00004991  00000-0  33132-3 0  9998,2 52546  53.2157 334.6886 0002588  34.4248 325.6911 15.08856674 35110,6917.829000000002,95.437,541.485,537.904,0.0
52546.0,STARLINK-3948,PAYLOAD,2022-12-27 09:33:14,15.08857637,0.0002553,53.2151,333.7979,31.9444,328.1703,5.8958e-05,6.5e-06,0.0,0 STARLINK-3948,1 52546U 22051P   22361.39808067  .00000650  00000-0  58958-4 0  9997,2 52546  53.2151 333.7979 0002553  31.9444 328.1703 15.08857637 35071,6917.826,95.436,541.4580000000002,537.925,0.0
52546.0,STARLINK-3948,PAYLOAD,2022-12-27 15:54:46,15.08857181,0.0002536,53.2151,332.6084,31.8084,328.3061,0.00038765,5.89e-05,0.0,0 STARLINK-3948,1 52546U 22051P   22361.66304130  .00005890  00000-0  38765-3 0  9993,2 52546  53.2151 332.6084 0002536  31.8084 328.3061 15.08857181 35114,6917.828,95.436,541.447,537.939,0.0
52546.0,STARLINK-3948,PAYLOAD,2022-12-28 01:27:05,15.0885825,0.0002546,53.215,330.8239,33.9319,326.1835,0.00029393,4.395e-05,0.0,0 STARLINK-3948,1 52546U 22051P   22362.06047859  .00004395  00000-0  29393-3 0  9996,2 52546  53.2150 330.8239 0002546  33.9319 326.1835 15.08858250 35247,6917.825,95.436,541.451,537.928,0.0
52546.0,STARLINK-3948,PAYLOAD,2022-12-28 07:48:37,15.08851305,0.0002618,53.2153,329.6348,32.7881,327.3274,0.00012778,1.746e-05,0.0,0 STARLINK-3948,1 52546U 22051P   22362.32543910  .00001746  00000-0  12778-3 0  9990,2 52546  53.2153 329.6348 0002618  32.7881 327.3274 15.08851305 35219,6917.846,95.437,541.5219999999998,537.9,0.0
52546.0,STARLINK-3948,PAYLOAD,2022-12-29 04:28:39,15.08830168,0.0002526999999999,53.2156,325.7679,32.9515,327.1634,-0.00027158,-4.607e-05,0.0,0 STARLINK-3948,1 52546U 22051P   22363.18656842 -.00004607  00000-0 -27158-3 0  9993,2 52546  53.2156 325.7679 0002527  32.9515 327.1634 15.08830168 35415,6917.91,95.438,541.524,538.0269999999998,0.0
52546.0,STARLINK-3948,PAYLOAD,2022-12-29 09:14:48,15.08834844,0.0002484999999999,53.2154,324.8757,27.2999,332.8123,-0.00028902,-4.885e-05,0.0,0 STARLINK-3948,1 52546U 22051P   22363.38528782 -.00004885  00000-0 -28902-3 0  9992,2 52546  53.2154 324.8757 0002485  27.2999 332.8123 15.08834844 35372,6917.896,95.438,541.48,538.0419999999998,0.0
52546.0,STARLINK-3948,PAYLOAD,2022-12-30 07:30:13,15.08842458,0.0002424999999999,53.2159,320.714,31.7678,328.346,-0.00021596,-3.724e-05,0.0,0 STARLINK-3948,1 52546U 22051P   22364.31265316 -.00003724  00000-0 -21596-3 0  9990,2 52546  53.2159 320.7140 0002425  31.7678 328.3460 15.08842458 35583,6917.873000000001,95.437,541.415,538.06,0.0
52546.0,STARLINK-3948,PAYLOAD,2022-12-31 05:45:36,15.08875638,0.0002681,53.2149,316.5502,32.0713,328.0442,0.00078147,0.00012183,0.0,0 STARLINK-3948,1 52546U 22051P   22365.24000709  .00012183  00000-0  78147-3 0  9997,2 52546  53.2149 316.5502 0002681  32.0713 328.0442 15.08875638 35724,6917.771,95.435,541.491,537.7819999999998,0.0
52546.0,STARLINK-3948,PAYLOAD,2022-12-31 13:42:31,15.08873416,0.0002877,53.215,315.0619,31.9597,328.1569,0.00025604,3.793e-05,0.0,0 STARLINK-3948,1 52546U 22051P   22365.57120007  .00003793  00000-0  25604-3 0  9994,2 52546  53.2150 315.0619 0002877  31.9597 328.1569 15.08873416 35705,6917.778,95.435,541.633,537.653,0.0
52546.0,STARLINK-3948,PAYLOAD,2023-01-01 07:11:46,15.08833532,0.000254,53.2146,311.7915,31.8657,328.2489,-0.00057886,-9.488e-05,0.0,0 STARLINK-3948,1 52546U 22051P   23001.29984369 -.00009488  00000-0 -57886-3 0  9996,2 52546  53.2146 311.7915 0002540  31.8657 328.2489 15.08833532 35881,6917.9,95.438,541.5219999999998,538.008,0.0
52546.0,STARLINK-3948,PAYLOAD,2023-01-01 13:33:19,15.08808885,0.0002683,53.2152,310.6003,29.8123,330.3021,0.00010445,1.373e-05,0.0,0 STARLINK-3948,1 52546U 22051P   23001.56481290  .00001373  00000-0  10445-3 0  9994,2 52546  53.2152 310.6003 0002683  29.8123 330.3021 15.08808885 35921,6917.975,95.44,541.697,537.984,0.0
52546.0,STARLINK-3948,PAYLOAD,2023-01-01 19:54:52,15.0881212,0.0002705,53.215,309.4107,32.2084,327.9073,-9.1118e-05,-1.737e-05,0.0,0 STARLINK-3948,1 52546U 22051P   23001.82977815 -.00001737  00000-0 -91118-4 0  9999,2 52546  53.2150 309.4107 0002705  32.2084 327.9073 15.08812120 35891,6917.965999999999,95.439,541.702,537.9590000000002,0.0
52546.0,STARLINK-3948,PAYLOAD,2023-01-02 13:24:08,15.08826119,0.0002545,53.2144,306.1405,35.7537,324.3625,0.00086463,0.00013494,0.0,0 STARLINK-3948,1 52546U 22051P   23002.55842917  .00013494  00000-0  86463-3 0  9991,2 52546  53.2144 306.1405 0002545  35.7537 324.3625 15.08826119 36003,6917.9230000000025,95.438,541.548,538.0269999999998,0.0
52546.0,STARLINK-3948,PAYLOAD,2023-01-02 19:45:40,15.08839612,0.0002552999999999,53.2142,304.951,35.6969,324.4194,0.0010584,0.00016597,0.0,0 STARLINK-3948,1 52546U 22051P   23002.82338904  .00016597  00000-0  10584-2 0  9994,2 52546  53.2142 304.9510 0002553  35.6969 324.4194 15.08839612 36117,6917.882,95.438,541.513,537.98,0.0
52546.0,STARLINK-3948,PAYLOAD,2023-01-03 13:14:54,15.08849484,0.0002806,53.2151,301.6794,36.9889,323.1296,0.00048071,7.373e-05,0.0,0 STARLINK-3948,1 52546U 22051P   23003.55202545  .00007373  00000-0  48071-3 0  9991,2 52546  53.2151 301.6794 0002806  36.9889 323.1296 15.08849484 36220,6917.851,95.437,541.658,537.775,0.0
52546.0,STARLINK-3948,PAYLOAD,2023-01-04 01:58:00,15.08843904,0.0002832,53.2154,299.3002,39.7757,320.3442,0.00018349,2.633e-05,0.0,0 STARLINK-3948,1 52546U 22051P   23004.08194557  .00002633  00000-0  18349-3 0  9992,2 52546  53.2154 299.3002 0002832  39.7757 320.3442 15.08843904 36304,6917.868,95.437,541.693,537.774,0.0
52546.0,STARLINK-3948,PAYLOAD,2023-01-04 13:05:41,15.08853106,0.0002833999999999,53.215,297.2191,39.963,320.1571,0.00036158,5.473e-05,0.0,0 STARLINK-3948,1 52546U 22051P   23004.54562281  .00005473  00000-0  36158-3 0  9999,2 52546  53.2150 297.2191 0002834  39.9630 320.1571 15.08853106 36306,6917.84,95.437,541.6659999999998,537.745,0.0
52546.0,STARLINK-3948,PAYLOAD,2023-01-05 00:13:22,15.08868968,0.0002654,53.2157,295.1362,39.3839,320.7346,0.00072726,0.00011315,0.0,0 STARLINK-3948,1 52546U 22051P   23005.00929302  .00011315  00000-0  72726-3 0  9995,2 52546  53.2157 295.1362 0002654  39.3839 320.7346 15.08868968 36448,6917.792,95.436,541.493,537.821,0.0
52546.0,STARLINK-3948,PAYLOAD,2023-01-05 01:48:45,15.08872367,0.0002545,53.2146,294.8397,37.4058,322.7111,0.00081061,0.00012648,0.0,0 STARLINK-3948,1 52546U 22051P   23005.07553119  .00012648  00000-0  81061-3 0  9993,2 52546  53.2146 294.8397 0002545  37.4058 322.7111 15.08872367 36384,6917.781,95.436,541.4069999999998,537.886,0.0
52546.0,STARLINK-3948,PAYLOAD,2023-01-06 11:11:51,15.08827487,0.0002672,53.2161,288.5958,29.5213,330.5929,-0.00037044,-6.178e-05,0.0,0 STARLINK-3948,1 52546U 22051P   23006.46656503 -.00006178  00000-0 -37044-3 0  9993,2 52546  53.2161 288.5958 0002672  29.5213 330.5929 15.08827487 36668,6917.919,95.438,541.632,537.935,0.0
52546.0,STARLINK-3948,PAYLOAD,2023-01-06 20:44:10,15.08826222,0.0002541,53.215,286.8136,25.1576,334.9539,-0.00037428,-6.238e-05,0.0,0 STARLINK-3948,1 52546U 22051P   23006.86401615 -.00006238  00000-0 -37428-3 0  9992,2 52546  53.2150 286.8136 0002541  25.1576 334.9539 15.08826222 36654,6917.923000000002,95.438,541.545,538.03,0.0
52546.0,STARLINK-3948,PAYLOAD,2023-01-07 03:05:43,15.08824482,0.0002534,53.2144,285.6235,29.1449,330.9685,0.00020895,3.037e-05,0.0,0 STARLINK-3948,1 52546U 22051P   23007.12897704  .00003037  00000-0  20895-3 0  9992,2 52546  53.2144 285.6235 0002534  29.1449 330.9685 15.08824482 36697,6917.928000000001,95.439,541.5459999999998,538.04,0.0
52546.0,STARLINK-3948,PAYLOAD,2023-01-07 11:02:39,15.08833347,0.0002452,53.2143,284.1364,30.0435,330.0697,0.00069052,0.00010717,0.0,0 STARLINK-3948,1 52546U 22051P   23007.46017946  .00010717  00000-0  69052-3 0  9992,2 52546  53.2143 284.1364 0002452  30.0435 330.0697 15.08833347 36816,6917.901,95.438,541.462,538.069,0.0
52546.0,STARLINK-3948,PAYLOAD,2023-01-08 02:56:31,15.08825731,0.0002463,53.214,281.16200000000003,32.472,327.6424,0.00024877,3.672e-05,0.0,0 STARLINK-3948,1 52546U 22051P   23008.12258848  .00003672  00000-0  24877-3 0  9992,2 52546  53.2140 281.1620 0002463  32.4720 327.6424 15.08825731 36919,6917.924,95.438,541.493,538.085,0.0
52546.0,STARLINK-3948,PAYLOAD,2023-01-08 12:28:50,15.08842775,0.0002403,53.214,279.3782,33.095,327.0193,0.00055872,8.616e-05,0.0,0 STARLINK-3948,1 52546U 22051P   23008.52002634  .00008616  00000-0  55872-3 0  9998,2 52546  53.2140 279.3782 0002403  33.0950 327.0193 15.08842775 36973,6917.871999999999,95.437,541.399,538.075,0.0
52546.0,STARLINK-3948,PAYLOAD,2023-01-08 20:25:46,15.08838914,0.0002443,53.2138,277.8912,33.0647,327.0497,0.00032556,4.897e-05,0.0,0 STARLINK-3948,1 52546U 22051P   23008.85122804  .00004897  00000-0  32556-3 0  9997,2 52546  53.2138 277.8912 0002443  33.0647 327.0497 15.08838914 36950,6917.884,95.438,541.439,538.059,0.0
